ONEWEB-0176             
1 48210U 21031A   25157.84218768 -.00000084  00000+0 -26102-3 0  9993
2 48210  87.9040   4.3743 0001772  87.5351 272.5982 13.14502039200298
ONEWEB-0184             
1 48211U 21031B   25157.51076242 -.00000056  00000+0 -18625-3 0  9997
2 48211  87.9039   4.4109 0002236 110.0956 250.0414 13.14502080198937
ONEWEB-0179             
1 48212U 21031C   25157.86201111  .00000133  00000+0  32348-3 0  9993
2 48212  87.9042   4.3578 0001863  84.7715 275.3627 13.14501792199022
ONEWEB-0180             
1 48213U 21031D   25157.81839500 -.00000064  00000+0 -20608-3 0  9999
2 48213  87.9039   4.3547 0001983  90.4582 269.6775 13.14505029198907
ONEWEB-0218             
1 48214U 21031E   25157.84059638  .00000121  00000+0  29108-3 0  9995
2 48214  87.9037   4.3511 0002509 105.8351 254.3056 13.14506328199061
ONEWEB-0209             
1 48215U 21031F   25157.82950179 -.00000183  00000+0 -52862-3 0  9997
2 48215  87.9042   4.3958 0001950  84.4050 275.7302 13.14501924199068
ONEWEB-0198             
1 48216U 21031G   25157.81363683  .00000151  00000+0  37328-3 0  9998
2 48216  87.9042   4.4009 0002147  92.5194 267.6181 13.14505198199157
ONEWEB-0189             
1 48217U 21031H   25157.52185021 -.00000269  00000+0 -76025-3 0  9994
2 48217  87.9036   4.4324 0002220  90.7945 269.3439 13.14501865198877
