<?xml version="1.0" encoding="UTF-8"?>
<ndm xmlns:xsi="http://www.w3.org/2001/XMLSchema-instance" xsi:noNamespaceSchemaLocation="https://sanaregistry.org/r/ndmxml_unqualified/ndmxml-2.0.0-master-2.0.xsd">
<omm id="CCSDS_OMM_VERS" version="2.0">
<header><CREATION_DATE/><ORIGINATOR/></header><body><segment><metadata><OBJECT_NAME>ONEWEB-0176</OBJECT_NAME><OBJECT_ID>2021-031A</OBJECT_ID><CENTER_NAME>EARTH</CENTER_NAME><REF_FRAME>TEME</REF_FRAME><TIME_SYSTEM>UTC</TIME_SYSTEM><MEAN_ELEMENT_THEORY>SGP4</MEAN_ELEMENT_THEORY></metadata><data><meanElements><EPOCH>2025-06-06T20:12:45.015552</EPOCH><MEAN_MOTION>13.14502039</MEAN_MOTION><ECCENTRICITY>.0001772</ECCENTRICITY><INCLINATION>87.9040</INCLINATION><RA_OF_ASC_NODE>4.3743</RA_OF_ASC_NODE><ARG_OF_PERICENTER>87.5351</ARG_OF_PERICENTER><MEAN_ANOMALY>272.5982</MEAN_ANOMALY></meanElements><tleParameters><EPHEMERIS_TYPE>0</EPHEMERIS_TYPE><CLASSIFICATION_TYPE>U</CLASSIFICATION_TYPE><NORAD_CAT_ID>48210</NORAD_CAT_ID><ELEMENT_SET_NO>999</ELEMENT_SET_NO><REV_AT_EPOCH>20029</REV_AT_EPOCH><BSTAR>-.26102E-3</BSTAR><MEAN_MOTION_DOT>-.84E-6</MEAN_MOTION_DOT><MEAN_MOTION_DDOT>0</MEAN_MOTION_DDOT></tleParameters></data></segment></body></omm>
<omm id="CCSDS_OMM_VERS" version="2.0">
<header><CREATION_DATE/><ORIGINATOR/></header><body><segment><metadata><OBJECT_NAME>ONEWEB-0184</OBJECT_NAME><OBJECT_ID>2021-031B</OBJECT_ID><CENTER_NAME>EARTH</CENTER_NAME><REF_FRAME>TEME</REF_FRAME><TIME_SYSTEM>UTC</TIME_SYSTEM><MEAN_ELEMENT_THEORY>SGP4</MEAN_ELEMENT_THEORY></metadata><data><meanElements><EPOCH>2025-06-06T12:15:29.873088</EPOCH><MEAN_MOTION>13.14502080</MEAN_MOTION><ECCENTRICITY>.0002236</ECCENTRICITY><INCLINATION>87.9039</INCLINATION><RA_OF_ASC_NODE>4.4109</RA_OF_ASC_NODE><ARG_OF_PERICENTER>110.0956</ARG_OF_PERICENTER><MEAN_ANOMALY>250.0414</MEAN_ANOMALY></meanElements><tleParameters><EPHEMERIS_TYPE>0</EPHEMERIS_TYPE><CLASSIFICATION_TYPE>U</CLASSIFICATION_TYPE><NORAD_CAT_ID>48211</NORAD_CAT_ID><ELEMENT_SET_NO>999</ELEMENT_SET_NO><REV_AT_EPOCH>19893</REV_AT_EPOCH><BSTAR>-.18625E-3</BSTAR><MEAN_MOTION_DOT>-.56E-6</MEAN_MOTION_DOT><MEAN_MOTION_DDOT>0</MEAN_MOTION_DDOT></tleParameters></data></segment></body></omm>
<omm id="CCSDS_OMM_VERS" version="2.0">
<header><CREATION_DATE/><ORIGINATOR/></header><body><segment><metadata><OBJECT_NAME>ONEWEB-0179</OBJECT_NAME><OBJECT_ID>2021-031C</OBJECT_ID><CENTER_NAME>EARTH</CENTER_NAME><REF_FRAME>TEME</REF_FRAME><TIME_SYSTEM>UTC</TIME_SYSTEM><MEAN_ELEMENT_THEORY>SGP4</MEAN_ELEMENT_THEORY></metadata><data><meanElements><EPOCH>2025-06-06T20:41:17.759904</EPOCH><MEAN_MOTION>13.14501792</MEAN_MOTION><ECCENTRICITY>.0001863</ECCENTRICITY><INCLINATION>87.9042</INCLINATION><RA_OF_ASC_NODE>4.3578</RA_OF_ASC_NODE><ARG_OF_PERICENTER>84.7715</ARG_OF_PERICENTER><MEAN_ANOMALY>275.3627</MEAN_ANOMALY></meanElements><tleParameters><EPHEMERIS_TYPE>0</EPHEMERIS_TYPE><CLASSIFICATION_TYPE>U</CLASSIFICATION_TYPE><NORAD_CAT_ID>48212</NORAD_CAT_ID><ELEMENT_SET_NO>999</ELEMENT_SET_NO><REV_AT_EPOCH>19902</REV_AT_EPOCH><BSTAR>.32348E-3</BSTAR><MEAN_MOTION_DOT>.133E-5</MEAN_MOTION_DOT><MEAN_MOTION_DDOT>0</MEAN_MOTION_DDOT></tleParameters></data></segment></body></omm>
<omm id="CCSDS_OMM_VERS" version="2.0">
<header><CREATION_DATE/><ORIGINATOR/></header><body><segment><metadata><OBJECT_NAME>ONEWEB-0180</OBJECT_NAME><OBJECT_ID>2021-031D</OBJECT_ID><CENTER_NAME>EARTH</CENTER_NAME><REF_FRAME>TEME</REF_FRAME><TIME_SYSTEM>UTC</TIME_SYSTEM><MEAN_ELEMENT_THEORY>SGP4</MEAN_ELEMENT_THEORY></metadata><data><meanElements><EPOCH>2025-06-06T19:38:29.328000</EPOCH><MEAN_MOTION>13.14505029</MEAN_MOTION><ECCENTRICITY>.0001983</ECCENTRICITY><INCLINATION>87.9039</INCLINATION><RA_OF_ASC_NODE>4.3547</RA_OF_ASC_NODE><ARG_OF_PERICENTER>90.4582</ARG_OF_PERICENTER><MEAN_ANOMALY>269.6775</MEAN_ANOMALY></meanElements><tleParameters><EPHEMERIS_TYPE>0</EPHEMERIS_TYPE><CLASSIFICATION_TYPE>U</CLASSIFICATION_TYPE><NORAD_CAT_ID>48213</NORAD_CAT_ID><ELEMENT_SET_NO>999</ELEMENT_SET_NO><REV_AT_EPOCH>19890</REV_AT_EPOCH><BSTAR>-.20608E-3</BSTAR><MEAN_MOTION_DOT>-.64E-6</MEAN_MOTION_DOT><MEAN_MOTION_DDOT>0</MEAN_MOTION_DDOT></tleParameters></data></segment></body></omm>
<omm id="CCSDS_OMM_VERS" version="2.0">
<header><CREATION_DATE/><ORIGINATOR/></header><body><segment><metadata><OBJECT_NAME>ONEWEB-0218</OBJECT_NAME><OBJECT_ID>2021-031E</OBJECT_ID><CENTER_NAME>EARTH</CENTER_NAME><REF_FRAME>TEME</REF_FRAME><TIME_SYSTEM>UTC</TIME_SYSTEM><MEAN_ELEMENT_THEORY>SGP4</MEAN_ELEMENT_THEORY></metadata><data><meanElements><EPOCH>2025-06-06T20:10:27.527232</EPOCH><MEAN_MOTION>13.14506328</MEAN_MOTION><ECCENTRICITY>.0002509</ECCENTRICITY><INCLINATION>87.9037</INCLINATION><RA_OF_ASC_NODE>4.3511</RA_OF_ASC_NODE><ARG_OF_PERICENTER>105.8351</ARG_OF_PERICENTER><MEAN_ANOMALY>254.3056</MEAN_ANOMALY></meanElements><tleParameters><EPHEMERIS_TYPE>0</EPHEMERIS_TYPE><CLASSIFICATION_TYPE>U</CLASSIFICATION_TYPE><NORAD_CAT_ID>48214</NORAD_CAT_ID><ELEMENT_SET_NO>999</ELEMENT_SET_NO><REV_AT_EPOCH>19906</REV_AT_EPOCH><BSTAR>.29108E-3</BSTAR><MEAN_MOTION_DOT>.121E-5</MEAN_MOTION_DOT><MEAN_MOTION_DDOT>0</MEAN_MOTION_DDOT></tleParameters></data></segment></body></omm>
<omm id="CCSDS_OMM_VERS" version="2.0">
<header><CREATION_DATE/><ORIGINATOR/></header><body><segment><metadata><OBJECT_NAME>ONEWEB-0209</OBJECT_NAME><OBJECT_ID>2021-031F</OBJECT_ID><CENTER_NAME>EARTH</CENTER_NAME><REF_FRAME>TEME</REF_FRAME><TIME_SYSTEM>UTC</TIME_SYSTEM><MEAN_ELEMENT_THEORY>SGP4</MEAN_ELEMENT_THEORY></metadata><data><meanElements><EPOCH>2025-06-06T19:54:28.954656</EPOCH><MEAN_MOTION>13.14501924</MEAN_MOTION><ECCENTRICITY>.000195</ECCENTRICITY><INCLINATION>87.9042</INCLINATION><RA_OF_ASC_NODE>4.3958</RA_OF_ASC_NODE><ARG_OF_PERICENTER>84.4050</ARG_OF_PERICENTER><MEAN_ANOMALY>275.7302</MEAN_ANOMALY></meanElements><tleParameters><EPHEMERIS_TYPE>0</EPHEMERIS_TYPE><CLASSIFICATION_TYPE>U</CLASSIFICATION_TYPE><NORAD_CAT_ID>48215</NORAD_CAT_ID><ELEMENT_SET_NO>999</ELEMENT_SET_NO><REV_AT_EPOCH>19906</REV_AT_EPOCH><BSTAR>-.52862E-3</BSTAR><MEAN_MOTION_DOT>-.183E-5</MEAN_MOTION_DOT><MEAN_MOTION_DDOT>0</MEAN_MOTION_DDOT></tleParameters></data></segment></body></omm>
<omm id="CCSDS_OMM_VERS" version="2.0">
<header><CREATION_DATE/><ORIGINATOR/></header><body><segment><metadata><OBJECT_NAME>ONEWEB-0198</OBJECT_NAME><OBJECT_ID>2021-031G</OBJECT_ID><CENTER_NAME>EARTH</CENTER_NAME><REF_FRAME>TEME</REF_FRAME><TIME_SYSTEM>UTC</TIME_SYSTEM><MEAN_ELEMENT_THEORY>SGP4</MEAN_ELEMENT_THEORY></metadata><data><meanElements><EPOCH>2025-06-06T19:31:38.222112</EPOCH><MEAN_MOTION>13.14505198</MEAN_MOTION><ECCENTRICITY>.0002147</ECCENTRICITY><INCLINATION>87.9042</INCLINATION><RA_OF_ASC_NODE>4.4009</RA_OF_ASC_NODE><ARG_OF_PERICENTER>92.5194</ARG_OF_PERICENTER><MEAN_ANOMALY>267.6181</MEAN_ANOMALY></meanElements><tleParameters><EPHEMERIS_TYPE>0</EPHEMERIS_TYPE><CLASSIFICATION_TYPE>U</CLASSIFICATION_TYPE><NORAD_CAT_ID>48216</NORAD_CAT_ID><ELEMENT_SET_NO>999</ELEMENT_SET_NO><REV_AT_EPOCH>19915</REV_AT_EPOCH><BSTAR>.37328E-3</BSTAR><MEAN_MOTION_DOT>.151E-5</MEAN_MOTION_DOT><MEAN_MOTION_DDOT>0</MEAN_MOTION_DDOT></tleParameters></data></segment></body></omm>
<omm id="CCSDS_OMM_VERS" version="2.0">
<header><CREATION_DATE/><ORIGINATOR/></header><body><segment><metadata><OBJECT_NAME>ONEWEB-0189</OBJECT_NAME><OBJECT_ID>2021-031H</OBJECT_ID><CENTER_NAME>EARTH</CENTER_NAME><REF_FRAME>TEME</REF_FRAME><TIME_SYSTEM>UTC</TIME_SYSTEM><MEAN_ELEMENT_THEORY>SGP4</MEAN_ELEMENT_THEORY></metadata><data><meanElements><EPOCH>2025-06-06T12:31:27.858144</EPOCH><MEAN_MOTION>13.14501865</MEAN_MOTION><ECCENTRICITY>.000222</ECCENTRICITY><INCLINATION>87.9036</INCLINATION><RA_OF_ASC_NODE>4.4324</RA_OF_ASC_NODE><ARG_OF_PERICENTER>90.7945</ARG_OF_PERICENTER><MEAN_ANOMALY>269.3439</MEAN_ANOMALY></meanElements><tleParameters><EPHEMERIS_TYPE>0</EPHEMERIS_TYPE><CLASSIFICATION_TYPE>U</CLASSIFICATION_TYPE><NORAD_CAT_ID>48217</NORAD_CAT_ID><ELEMENT_SET_NO>999</ELEMENT_SET_NO><REV_AT_EPOCH>19887</REV_AT_EPOCH><BSTAR>-.76025E-3</BSTAR><MEAN_MOTION_DOT>-.269E-5</MEAN_MOTION_DOT><MEAN_MOTION_DDOT>0</MEAN_MOTION_DDOT></tleParameters></data></segment></body></omm>

</ndm>
